LEMUR-2-PETERG          
1 42841U 17042S   26068.48235713  .00023240  00000+0  81076-3 0  9993
2 42841  97.3980 253.6596 0003700 341.6938  18.4169 15.29611459473171
STARLINK-32462          
1 62129U 24222R   26068.53414897  .00020418  00000+0  74956-3 0  9993
2 62129  43.0035 133.7368 0002113 270.1900  89.8710 15.27574971 72767
